{
  "norad_id": 59788,
  "name": "STARLINK-31888",
  "history": [
    {
      "epoch": "2026-03-28T18:02:52.196928Z",
      "apogee_km": 483.7308692696588,
      "perigee_km": 482.4096751973175,
      "latitude_deg": -5.4391792044847956e-05,
      "longitude_deg": 4.110420792031503,
      "height_km": 482.7861375898818,
      "semi_major_axis_km": 6861.207272233488,
      "eccentricity": 9.628e-05,
      "inclination_deg": 43.0044,
      "raan_deg": 100.9959,
      "arg_perigee_deg": 275.2951,
      "mean_anomaly_deg": 84.779,
      "mean_motion_rev_day": 15.27572928
    },
    {
      "epoch": "2026-03-30T01:26:00.072384Z",
      "apogee_km": 483.8826178855079,
      "perigee_km": 482.25925608761736,
      "latitude_deg": 9.291420410832364e-06,
      "longitude_deg": -115.34488276811217,
      "height_km": 482.657023312891,
      "semi_major_axis_km": 6861.207936986562,
      "eccentricity": 0.0001183,
      "inclination_deg": 43.0043,
      "raan_deg": 93.6123,
      "arg_perigee_deg": 283.6036,
      "mean_anomaly_deg": 76.4684,
      "mean_motion_rev_day": 15.27572706
    },
    {
      "epoch": "2026-03-30T01:26:00.073248Z",
      "apogee_km": 483.8823434371907,
      "perigee_km": 482.2595305359346,
      "latitude_deg": 6.233625606125305e-06,
      "longitude_deg": -115.34488963843962,
      "height_km": 482.6570878547282,
      "semi_major_axis_km": 6861.207936986562,
      "eccentricity": 0.00011826,
      "inclination_deg": 43.0043,
      "raan_deg": 93.6123,
      "arg_perigee_deg": 283.6036,
      "mean_anomaly_deg": 76.4684,
      "mean_motion_rev_day": 15.27572706
    },
    {
      "epoch": "2026-03-30T10:50:56.112576Z",
      "apogee_km": 483.64278488404943,
      "perigee_km": 482.4659533404192,
      "latitude_deg": 4.619741653814035e-06,
      "longitude_deg": 100.82272831947765,
      "height_km": 482.4696843986893,
      "semi_major_axis_km": 6861.1913691122345,
      "eccentricity": 8.576e-05,
      "inclination_deg": 43.0014,
      "raan_deg": 91.4001,
      "arg_perigee_deg": 307.8388,
      "mean_anomaly_deg": 52.2386,
      "mean_motion_rev_day": 15.27578239
    },
    {
      "epoch": "2026-03-30T23:24:11.624256Z",
      "apogee_km": 484.1604041122737,
      "perigee_km": 482.002688103893,
      "latitude_deg": 6.558907517156263e-05,
      "longitude_deg": -90.96432520996761,
      "height_km": 482.67674481486813,
      "semi_major_axis_km": 6861.218546108083,
      "eccentricity": 0.00015724,
      "inclination_deg": 43.0052,
      "raan_deg": 88.4432,
      "arg_perigee_deg": 279.7242,
      "mean_anomaly_deg": 80.3433,
      "mean_motion_rev_day": 15.27569163
    },
    {
      "epoch": "2026-03-31T16:39:54.645408Z",
      "apogee_km": 484.05932898168885,
      "perigee_km": 482.06683647766386,
      "latitude_deg": 2.4306087714303734e-05,
      "longitude_deg": 5.33255386780963,
      "height_km": 483.06609640031206,
      "semi_major_axis_km": 6861.200082729676,
      "eccentricity": 0.0001452,
      "inclination_deg": 43.0038,
      "raan_deg": 84.3783,
      "arg_perigee_deg": 256.8935,
      "mean_anomaly_deg": 103.1755,
      "mean_motion_rev_day": 15.27575329
    },
    {
      "epoch": "2026-04-01T16:12:15.709248Z",
      "apogee_km": 483.61155736182627,
      "perigee_km": 482.54532448230657,
      "latitude_deg": -6.0213015724421976e-05,
      "longitude_deg": 5.740879053438956,
      "height_km": 482.76471866401624,
      "semi_major_axis_km": 6861.215440922066,
      "eccentricity": 7.77e-05,
      "inclination_deg": 43.0035,
      "raan_deg": 78.8412,
      "arg_perigee_deg": 279.7499,
      "mean_anomaly_deg": 80.3264,
      "mean_motion_rev_day": 15.275702
    },
    {
      "epoch": "2026-04-02T15:44:36.906144Z",
      "apogee_km": 483.35802702070396,
      "perigee_km": 482.7881349113786,
      "latitude_deg": -2.8595038541018538e-05,
      "longitude_deg": 6.147971754819941,
      "height_km": 482.7062745318414,
      "semi_major_axis_km": 6861.210080966041,
      "eccentricity": 4.153e-05,
      "inclination_deg": 43.0021,
      "raan_deg": 73.3033,
      "arg_perigee_deg": 300.0831,
      "mean_anomaly_deg": 59.9979,
      "mean_motion_rev_day": 15.2757199
    },
    {
      "epoch": "2026-04-03T09:00:19.146240Z",
      "apogee_km": 483.5896107177614,
      "perigee_km": 482.49580144901756,
      "latitude_deg": 1.8298300866902698e-05,
      "longitude_deg": 102.44830737144923,
      "height_km": 482.76753777891923,
      "semi_major_axis_km": 6861.179706083389,
      "eccentricity": 7.971e-05,
      "inclination_deg": 43.0048,
      "raan_deg": 69.2385,
      "arg_perigee_deg": 275.4436,
      "mean_anomaly_deg": 84.6325,
      "mean_motion_rev_day": 15.27582134
    },
    {
      "epoch": "2026-04-04T21:05:57.036768Z",
      "apogee_km": 483.8874580072443,
      "perigee_km": 482.31211804071427,
      "latitude_deg": -1.2057712065897814e-05,
      "longitude_deg": -88.93582517409534,
      "height_km": 482.77655729793656,
      "semi_major_axis_km": 6861.236788023979,
      "eccentricity": 0.0001148,
      "inclination_deg": 43.0054,
      "raan_deg": 60.7446,
      "arg_perigee_deg": 277.318,
      "mean_anomaly_deg": 82.7541,
      "mean_motion_rev_day": 15.27563071
    },
    {
      "epoch": "2026-04-05T14:21:39.605184Z",
      "apogee_km": 483.3520806432016,
      "perigee_km": 482.8045556608131,
      "latitude_deg": -9.291809553239359e-06,
      "longitude_deg": 7.365790242550722,
      "height_km": 482.9174270733103,
      "semi_major_axis_km": 6861.215318152007,
      "eccentricity": 3.99e-05,
      "inclination_deg": 43.0011,
      "raan_deg": 56.6825,
      "arg_perigee_deg": 256.6526,
      "mean_anomaly_deg": 103.4281,
      "mean_motion_rev_day": 15.27570241
    },
    {
      "epoch": "2026-04-05T20:38:17.263392Z",
      "apogee_km": 483.68946239453544,
      "perigee_km": 482.472282343977,
      "latitude_deg": 9.563282088158203e-06,
      "longitude_deg": -88.5239917779778,
      "height_km": 482.57252796215806,
      "semi_major_axis_km": 6861.217872369256,
      "eccentricity": 8.87e-05,
      "inclination_deg": 43.0068,
      "raan_deg": 55.2074,
      "arg_perigee_deg": 297.9565,
      "mean_anomaly_deg": 62.1197,
      "mean_motion_rev_day": 15.27569388
    },
    {
      "epoch": "2026-04-06T06:03:12.814560Z",
      "apogee_km": 483.6386335650577,
      "perigee_km": 482.4800519506198,
      "latitude_deg": 2.3563699171001193e-05,
      "longitude_deg": 127.64178106841224,
      "height_km": 482.72580729333276,
      "semi_major_axis_km": 6861.1963427578385,
      "eccentricity": 8.443e-05,
      "inclination_deg": 43.0042,
      "raan_deg": 52.9913,
      "arg_perigee_deg": 280.9687,
      "mean_anomaly_deg": 79.107,
      "mean_motion_rev_day": 15.27576578
    },
    {
      "epoch": "2026-04-07T13:26:21.127200Z",
      "apogee_km": 483.5675691997212,
      "perigee_km": 482.5478584413531,
      "latitude_deg": -3.934809325978849e-06,
      "longitude_deg": 8.182949717566169,
      "height_km": 482.7092994023913,
      "semi_major_axis_km": 6861.194713820537,
      "eccentricity": 7.431e-05,
      "inclination_deg": 43.003,
      "raan_deg": 45.6061,
      "arg_perigee_deg": 284.1772,
      "mean_anomaly_deg": 75.8997,
      "mean_motion_rev_day": 15.27577122
    },
    {
      "epoch": "2026-04-07T21:17:08.064096Z",
      "apogee_km": 483.565538414462,
      "perigee_km": 482.5487094452956,
      "latitude_deg": 2.6926116878069793e-06,
      "longitude_deg": -111.68125359548978,
      "height_km": 482.7465188967071,
      "semi_major_axis_km": 6861.1941239298785,
      "eccentricity": 7.41e-05,
      "inclination_deg": 43.0027,
      "raan_deg": 43.7597,
      "arg_perigee_deg": 279.8569,
      "mean_anomaly_deg": 80.2199,
      "mean_motion_rev_day": 15.27577319
    },
    {
      "epoch": "2026-04-08T05:07:54.714144Z",
      "apogee_km": 483.4701078728194,
      "perigee_km": 482.64868544021283,
      "latitude_deg": 2.396561364854939e-06,
      "longitude_deg": 128.45693414774343,
      "height_km": 482.76813141134716,
      "semi_major_axis_km": 6861.196396656516,
      "eccentricity": 5.986e-05,
      "inclination_deg": 43.0028,
      "raan_deg": 41.9145,
      "arg_perigee_deg": 279.4698,
      "mean_anomaly_deg": 80.6086,
      "mean_motion_rev_day": 15.2757656
    },
    {
      "epoch": "2026-04-09T12:31:02.390880Z",
      "apogee_km": 483.6369901469034,
      "perigee_km": 482.4911695665678,
      "latitude_deg": -4.952207047490553e-06,
      "longitude_deg": 9.0007806891387,
      "height_km": 482.65530777830696,
      "semi_major_axis_km": 6861.201079856735,
      "eccentricity": 8.35e-05,
      "inclination_deg": 43.0034,
      "raan_deg": 34.5293,
      "arg_perigee_deg": 288.8761,
      "mean_anomaly_deg": 71.2,
      "mean_motion_rev_day": 15.27574996
    },
    {
      "epoch": "2026-04-10T04:12:36.216288Z",
      "apogee_km": 483.6722479509108,
      "perigee_km": 482.442035841269,
      "latitude_deg": 2.3501600222583235e-05,
      "longitude_deg": 129.27369252932226,
      "height_km": 482.6480825376092,
      "semi_major_axis_km": 6861.19414189609,
      "eccentricity": 8.965e-05,
      "inclination_deg": 43.0027,
      "raan_deg": 30.8376,
      "arg_perigee_deg": 287.5633,
      "mean_anomaly_deg": 72.5121,
      "mean_motion_rev_day": 15.27577313
    },
    {
      "epoch": "2026-04-11T11:35:43.862784Z",
      "apogee_km": 483.4006324428701,
      "perigee_km": 482.70490780017917,
      "latitude_deg": -1.6610105942320555e-05,
      "longitude_deg": 9.81443170371967,
      "height_km": 482.5841539799609,
      "semi_major_axis_km": 6861.189770121524,
      "eccentricity": 5.07e-05,
      "inclination_deg": 43.0011,
      "raan_deg": 23.4492,
      "arg_perigee_deg": 314.6671,
      "mean_anomaly_deg": 45.4139,
      "mean_motion_rev_day": 15.27578773
    }
  ]
}